{ "type": "FeatureCollection", "features": [{"type":"Feature","geometry":{"type":"MultiPolygon","coordinates":[[[[-73.98677782187565,40.74275844273813],[-73.98810810401082,40.74331092897379],[-73.9885746360764,40.742661095696846],[-73.9889474119814,40.74143132137951],[-73.98801009231018,40.74104203294753],[-73.98677782187565,40.74275844273813]]]]},"properties":{"jurisdiction":"DPR","mapped":"True","zipcode":"10010","acres":"6.234","location":"Broadway, Madison Ave. bet. E. 23 St. and E. 26 St.","nys_assembly":"74","councildistrict":"3","typecategory":"Neighborhood Park","us_congress":"12","parentid":"M-05","gispropnum":"M052","retired":false,"communityboard":"105","objectid":"169320","globalid":"D8F03C02-9FE1-4C71-8517-7DF0FAF42487","name311":"Madison Square Park","department":"M-05","pip_ratable":true,"subcategory":"Large Park","precinct":"13","permit":true,"acquisitiondate":"1847-05-03T00:00:00.000","omppropid":"M052","gisobjid":"100005139","signname":"Madison Square Park","address":"2 MADISON AVENUE","permitparent":"M-05","class":"PARK","nys_senate":"28","permitdistrict":"M-05","borough":"M","waterfront":false}}], "crs" : { "type": "name", "properties": { "name": "urn:ogc:def:crs:OGC:1.3:CRS84" } } }